{
  "norad_id": 59074,
  "name": "STARLINK-31265",
  "history": [
    {
      "epoch": "2026-03-28T14:25:15.422880Z",
      "apogee_km": 483.80841713312475,
      "perigee_km": 482.2385836106405,
      "latitude_deg": -3.454523819562742e-05,
      "longitude_deg": 161.57631794290265,
      "height_km": 482.89681252524684,
      "semi_major_axis_km": 6861.160500371882,
      "eccentricity": 0.0001144,
      "inclination_deg": 42.9983,
      "raan_deg": 203.9096,
      "arg_perigee_deg": 262.8987,
      "mean_anomaly_deg": 97.1734,
      "mean_motion_rev_day": 15.27588548
    }
  ]
}